PLEIADES NEO 3          
1 48268U 21034A   26192.97002681  .00000782  00000+0  10599-3 0  9994
2 48268  97.8942 267.3799 0001371  94.8287 265.3083 14.81678298281329
PLEIADES NEO 4          
1 49070U 21073E   26192.93625505 -.00000043  00000+0  11686-5 0  9992
2 49070  97.8940 267.3427 0001338  92.7533 267.3833 14.81672809265038
